{
  "norad_id": 61877,
  "name": "STARLINK-11321 [DTC]",
  "history": [
    {
      "epoch": "2026-03-28T17:45:59.180256Z",
      "apogee_km": 360.3353485300049,
      "perigee_km": 359.1787216399425,
      "latitude_deg": 5.354582443598834e-05,
      "longitude_deg": 169.92397790477062,
      "height_km": 360.5591189697027,
      "semi_major_axis_km": 6737.894035084973,
      "eccentricity": 8.583e-05,
      "inclination_deg": 53.1603,
      "raan_deg": 262.5769,
      "arg_perigee_deg": 78.8392,
      "mean_anomaly_deg": 281.2723,
      "mean_motion_rev_day": 15.69699417
    }
  ]
}