{"fetched_at":"2026-03-29T16:36:15Z","count":15609,"tles":[{"name":"STARLINK-11321 [DTC]","line1":"1 61877U 24204D   26087.74026829 -.00000410  00000+0  14732-5 0  9999","line2":"2 61877  53.1603 262.5769 0000858  78.8392 281.2723 15.69699417 79899","category":"Starlink"}]}